GOES 2                  
1 10061U 77048A   01263.60054748 -.00000273  00000-0  00000+0 0  5358
2 10061  13.9645  17.6048 0013900 182.6327 177.3727  0.99402355 33700
GOES 6                  
1 14050U 83041A   01265.31742843 -.00000270  00000-0  10000-3 0  2247
2 14050   9.7647  38.6756 0001918 320.0422  39.9608  1.00252909125485
GOES 7                  
1 17561U 87022A   01264.47134976  .00000027  00000-0  00000+0 0  1836
2 17561   6.6392  58.4590 0005044 319.5938 331.9906  1.00272167 36578
INSAT 1D                
1 20643U 90051A   01265.37082176 -.00000097  00000-0  00000+0 0  6766
2 20643   2.9945  85.0563 0006000 311.3059 172.3822  1.00273182 28167
FENGYUN 1B              
1 20788U 90081A   01264.92390958  .00000195  00000-0  15698-3 0  4926
2 20788  98.9645 243.9120 0015820 210.7911 149.2328 14.01843482565422
METEOSAT 5 (MOP 2)      
1 21140U 91015B   01265.58059922  .00000001  00000-0  10000-3 0   646
2 21140   4.4942  73.1005 0000615  34.5244 165.9605  1.00277221 40898
NOAA 12                 
1 21263U 91032A   01265.75738853  .00000841  00000-0  38371-3 0  3306
2 21263  98.5795 255.6839 0014020  78.0113 282.2636 14.24122909538058
METEOR 3-5              
1 21655U 91056A   01265.56892763  .00000051  00000-0  10000-3 0  3691
2 21655  82.5568  41.9580 0014276  46.3229 313.9076 13.16935194485826
INSAT 2A                
1 22027U 92041A   01263.05883681  .00000102  00000-0  10000-3 0  3621
2 22027   3.4111  82.0204 0011631 132.8400 213.4147  1.00272340 33491
INSAT 2B                
1 22724U 93048B   01262.72684317 -.00000278  00000-0  10000-3 0   959
2 22724   0.8681  95.6809 0007416  38.5880 219.4904  1.00269180 30211
METEOR 2-21             
1 22782U 93055A   01265.25043393  .00000102  00000-0  79090-4 0   809
2 22782  82.5459 262.7917 0021898 352.1624   7.9180 13.83371968406971
METEOSAT 6              
1 22912U 93073B   01263.83106483 -.00000096  00000-0  00000+0 0  9538
2 22912   1.4648  82.5925 0000174 178.9267  28.2470  1.00271130 27124
GOES 8                  
1 23051U 94022A   01264.43676315 -.00000271  00000-0  00000+0 0  8568
2 23051   0.2454 101.8570 0002790  95.3562 245.8376  1.00272912 34644
ELEKTRO                 
1 23327U 94069A   01263.01933927 -.00000095  00000-0  10000-3 0   801
2 23327   4.0937  78.7145 0003875 141.0528 219.3124  1.00293755 25267
NOAA 14                 
1 23455U 94089A   01265.77943090  .00000438  00000-0  26135-3 0  9054
2 23455  99.1837 260.7231 0008502 230.3640 129.6781 14.12764408346916
GMS 5                   
1 23522U 95011B   01265.16294560 -.00000300  00000-0  00000+0 0  3646
2 23522   0.7922  78.3569 0000942 261.8794 219.3214  1.00279986 23735
GOES 9                  
1 23581U 95025A   01265.30816492 -.00000117  00000-0  00000+0 0  7578
2 23581   1.0145  94.2711 0003877 234.3094  39.9227  1.00270588 23217
INSAT 2C                
1 23731U 95067B   01262.72349363 -.00000277  00000-0  10000-3 0  6685
2 23731   0.0771 283.7319 0006502 255.5491 173.1799  1.00264863 21202
GOES 10                 
1 24786U 97019A   01264.69021780  .00000070  00000-0  00000+0 0  8679
2 24786   0.2107 277.6041 0004241 238.6947 317.3845  1.00268713 16170
FENGYUN 2A              
1 24834U 97029A   01264.93078125 -.00000206  00000-0  00000+0 0  7194
2 24834   1.3312  93.4873 0000838 131.7916 196.1031  1.00266375 15674
ORBVIEW 2 (SEASTAR)     
1 24883U 97037A   01264.89588275  .00001396  00000-0  31645-3 0  6073
2 24883  98.2189   1.4626 0002303  21.1452 338.9841 14.57616055220321
METEOSAT 7              
1 24932U 97049B   01262.94303700 -.00000025  00000-0  00000-0 0  9512
2 24932   0.3038 302.5581 0001176 355.7934  40.3140  1.00264587 14832
NOAA 15                 
1 25338U 98030A   01265.75829408  .00000482  00000-0  22993-3 0  3679
2 25338  98.5959 290.8447 0011194  17.7424 342.4140 14.23655703174672
RESURS O1-N4            
1 25394U 98043A   01265.79065263  .00000516  00000-0  24753-3 0  7971
2 25394  98.6835 341.9522 0001637 138.7497 221.3806 14.23190723166430
INSAT 2E                
1 25666U 99016A   01265.58185632 -.00000183  00000-0  00000+0 0  4797
2 25666   0.0193 294.2411 0009410 279.2226  80.4350  1.00269998  9189
FENGYUN 1C              
1 25730U 99025A   01263.65688359  .00000010  00000-0  29446-4 0  3684
2 25730  98.6850 296.6669 0015129  32.0465 328.1623 14.10392122121876
QUIKSCAT                
1 25789U 99034A   01263.93525978  .00000348  00000-0  16358-3 0  3643
2 25789  98.6317  88.2385 0000137 137.0779 223.0413 14.26210449117474
INSAT 3B                
1 26108U 00016B   01265.58349273 -.00000184  00000-0  00000+0 0  2625
2 26108   0.0366 287.5349 0003299 183.4293 183.6383  1.00269738  5525
GOES 11                 
1 26352U 00022A   01264.42423117 -.00000090  00000-0  10000-3 0  3379
2 26352   0.2105 277.5217 0005209 292.2036 195.1420  1.00279087  5077
FENGYUN 2B              
1 26382U 00032A   01265.16577546 -.00000349  00000-0  00000+0 0  3597
2 26382   0.2604 186.5496 0000707 144.4131 194.1663  1.00281651  4554
NOAA 16                 
1 26536U 00055A   01264.86040242  .00000236  00000-0  15507-3 0  5034
2 26536  98.8330 208.9959 0010029 325.6148  34.2222 14.11242246 51534
GOES 12                 
1 26871U 01031A   01262.49696619 -.00000202  00000-0  00000+0 0   760
2 26871   0.2470 284.1984 0002543 169.2434 353.9859  1.00269495   657
